#dP2024  4  4  0  0  0.00000000      96 __u+U IGS20 FIT  IAC
## 2308 345600.00000000   900.00000000 60404 0.0000000000000
+  128   C01C02C03C04C05C06C07C08C09C10C11C12C13C14C16C19C20
+        C21C22C23C24C25C26C27C28C29C30C32C33C34C35C36C37C38
+        C39C40C41C42C43C44C45C46C60E02E03E04E05E07E08E09E10
+        E11E12E13E15E18E19E21E24E25E26E27E30E31E33E34E36G01
+        G02G03G04G05G06G07G08G09G10G11G12G13G14G15G16G17G18
+        G19G20G21G22G23G24G25G26G27G28G29G30G31G32J02J03J04
+        R01R02R03R04R05R06R07R08R09R10R11R12R13R14R15R16R17
+        R18R19R20R21R22R23R24R25R26  0  0  0  0  0  0  0  0
++        17 17 17 17 17  9 10 10  9  9  9  9  9  9  9  8  7
++         7  7  7  7  7  7  7  7  8  7  7  7  7  8  8  7  8
++         8  8  7  7  7  7  7  8 17  4  4  5  5  4  4  5  4
++         5  4  4  4  5  4  5  4  4  4  4  4  5  4  5  5  5
++         4  4  4  3  4  4  4  4  4  4  4  4  4  4  4  4  4
++         4  4  4  4  4  4  4  4  4  4  4  4  4  4 10 11 11
++         7  6  6  6  6 15  6  6  6 15  6  6  8  6  6  6  6
++         6  8  8  6  6 15  6  8  8  0  0  0  0  0  0  0  0
%c M  cc GPS ccc cccc cccc cccc cccc ccccc ccccc ccccc ccccc
%c cc cc ccc ccc cccc cccc cccc cccc ccccc ccccc ccccc ccccc
%f  0.0000000  0.000000000  0.00000000000  0.000000000000000
%f  0.0000000  0.000000000  0.00000000000  0.000000000000000
%i    0    0    0    0      0      0      0      0         0
%i    0    0    0    0      0      0      0      0         0
/* INFORMATION & ANALYSIS CENTER (IAC)            RAPID DATA
/* S/V CLOCKS ARE ALIGNED TO GNSS TIME                      
/* G:C1WC2W R:C1PC2P E:C1XC5X C:C2IC6I J:C1CC2S             
/* PCV:IGS20_2290 OL/AL:FES2004  NONE     YN ORB:CoN CLK:CoN
*  2024 04 04  2 45  0.00000000
PC01 -34315.437235  24492.547443  -1060.949576    890.445110
PC02   4483.062158  41883.396876  -1448.942133    571.415173
PC03 -14663.651561  39482.280983  -1255.569681    122.012722
PC04 -39627.356251  14414.675822   -681.287646    -96.315906
PC05  21954.936255  35948.314032   -927.030194   -898.220873
PC06 -13657.020163  39130.110633   6948.349398    320.398743
PC07  -3821.115457  31650.905422  27764.234597   -853.174567
PC08 -16082.724140  20205.468076 -33392.431354      5.536542
PC09  -9852.873516  38404.432426  13837.586922   -713.354010
PC10   4315.532425  35035.150042  23767.963077     16.396657
PC11   5904.032547 -27061.063873  -3323.944844    494.116018
PC12  14538.478434 -14305.255880 -19014.407217   -225.593582
PC13  -7079.761769  22186.742354 -35022.346992    429.104327
PC14    852.356265 -17506.679394  21717.097915    561.023254
PC16 -17000.167418  38332.851615   2124.612206   -436.722088
PC19   8966.668466  20382.663089 -16809.350358   -915.819581
PC20  -8658.549455  12990.350448 -23115.223246   -324.291075
PC21  22738.387406   3093.686026  15921.566935   -962.118165
PC22  22476.951051  16562.391599   -482.973231    -51.108959
PC23 -16440.603794  -8947.020545 -20698.600010   -775.509898
PC24  20422.940731 -16615.252252  -9235.857532    945.537607
PC25   2038.672585 -17980.269518 -21251.284927    366.044093
PC26  26015.333666  -6355.919844   7767.405562   -272.254323
PC27 -16168.188725   4630.803295  22244.252335    294.074445
PC28 -12821.357019 -14173.890526  20336.654544    224.654435
PC29   1560.894540  27443.056741  -4808.480311    263.499227
PC30 -10708.253452  22189.363879  13069.636569    -49.505011
PC32 -22768.664895  -2977.317952 -15823.815022   -595.170829
PC33  -8926.710905 -20318.719193  16911.367240   -966.470380
PC34   9937.830335 -23286.105691 -11779.481489    404.621748
PC35  13354.687040  13865.038770 -20204.887736    395.368719
PC36  -2766.242500  18005.431206  21160.264363     40.222410
PC37 -26144.869687   5543.370056  -8065.199975   -953.062035
PC38 -23117.772943  21345.115944 -28081.833499    146.848945
PC39 -18324.511284  37579.957745  -4357.532376     -7.839666
PC40  -6882.764580  27266.003427  31499.305033    -63.841163
PC41 -22137.293247 -16919.405944   1409.612605   -917.980983
PC42  10328.156649 -11876.959145  23092.666821   -444.159194
PC43   -905.218925 -27632.837623   3872.096060     66.669012
PC44  16151.094557  -5086.833272 -22204.199507    433.255709
PC45  16376.515814   8880.358011  20765.411948    -78.718004
PC46 -19968.148702  16786.151331   9955.862872   -137.101468
PC60   7269.131702  41499.834151  -1551.220526     -0.526787
PE02  24943.662927  -6049.544296 -14740.709125    116.620606
PE03  14244.912693  -9815.648003  24020.945798   -104.833790
PE04   -895.051056  25897.151039 -14297.638320   -365.310002
PE05  18985.762139  11683.307112  19485.417437   4735.287743
PE07 -12432.848049 -26670.472964  -3139.177883   -112.609581
PE08   1417.500246 -25483.444424  14987.242115   -249.455908
PE09  12381.820262  26720.924205   3068.969838   -394.499772
PE10  -4598.992226  23401.189018 -17537.211718   -614.435300
PE11   4891.276498  17676.753291 -23238.731591   3089.825875
PE12 -12368.451470  25018.941879  -9826.745178   -978.358184
PE13  -4258.120129 -18101.939281  23035.339142    -20.841962
PE15  12797.213428 -25020.496074   9322.909963    -95.058301
PE18  21639.108400   6701.049807 -21828.078729    511.109971
PE19 -15146.049386   7445.290970 -24303.550044   -308.431683
PE21 -28712.859090  -6689.241282  -2667.107356   -587.416782
PE24  15420.718070  16239.262730  19324.126305   -688.054714
PE25  28611.247369   6937.086105   3045.635701      2.923286
PE26 -18962.062637   -221.889759  22728.554434    415.689040
PE27 -15822.424574 -16081.616630 -19172.371233   -315.524995
PE30   6487.105744 -15879.314970 -24138.391229   -162.817864
PE31  -6252.746608  15883.046972  24182.276463    -19.931645
PE33 -22179.855526  16774.964643  10137.002354      9.938611
PE34  22071.394309 -17203.910761  -9654.711534   -103.702703
PE36  18552.866239    708.620518 -23057.354267   -208.488512
PG01  -8659.416374  22396.546202 -11326.242509    177.755285
PG02 -14755.774715  21901.377133    588.848663   -459.293689
PG03 -10059.399555  12779.994753 -21119.693720    290.873316
PG04  -4319.038981  20619.500173 -16077.852236    330.636545
PG05  22555.397294  -6470.957240  12355.053154   -167.853409
PG06  14310.082185   4975.775627 -21764.406426    338.230851
PG07    284.118855  20104.090695  17615.048203    -99.431902
PG08 -10425.302049  12676.246015  20691.227708     99.961485
PG09   6898.313662  25092.747233  -5244.220645    147.903638
PG10 -21499.690987 -10871.038333  11743.757225     -5.180299
PG11  20197.869466  -6795.226001 -15800.264643   -626.480752
PG12  12118.636085 -12095.965171 -20576.099908   -493.364916
PG13  14561.048760  -3172.141404  21784.565891    639.806199
PG14  18258.723546  13321.353065  14134.721582    367.467518
PG15   8922.868471 -14090.279934  20139.329478    144.689792
PG16 -25289.650141    305.092538   8493.488197   -325.325726
PG17  12681.051151  21921.902504  -7312.103617    711.061617
PG18    -81.534638 -19399.456656  18065.796344   -588.166095
PG19  15605.045868  15095.999508 -15734.246978    463.281121
PG20  26418.038898  -1598.795331    816.184313    381.473456
PG21 -16958.320550  19015.941045   5736.643068    128.675445
PG22  22929.910684  10858.513052   7752.572848      5.778408
PG23 -10561.905782 -14483.929416  19687.269457    192.567093
PG24  14957.639830 -21595.745277   1425.411267   -455.105441
PG25    408.419389 -15638.863234 -21813.816397    492.954338
PG26 -26127.508878  -4417.778302  -3870.996862    171.269429
PG27 -15972.179229   -355.596356  21002.311744    -16.413504
PG28 -13191.552507  -7658.232946 -21758.127793   -189.569028
PG29  -3020.658679 -25363.528904  -7127.875225   -602.956653
PG30   9831.413076  12793.308980  21206.681454   -410.330787
PG31 -19042.862418   2385.885664 -18736.685506   -228.034723
PG32 -15453.160345 -19304.371082  -9754.109168   -617.547908
PJ02 -28923.026558  22011.049207  26483.695568     -3.647710
PJ03 -32339.825929  25849.072764  13108.026473     -0.113369
PJ04 -23471.893593  21488.344667 -22570.480571     50.531086
PR01   3476.841677 -11561.228687  22475.841753     81.504299
PR02 -10487.545446 -19622.321290  12585.240236    -22.674157
PR03 -18918.673907 -16529.795820  -4532.616694     97.596394
PR04 -16526.997467  -4778.099235 -18802.278737    230.478749
PR05  -5483.583442   9670.954385 -22938.228382    129.436662
PR06  12058.247045  19348.727208 -11429.834914   -157.556393
PR07  19049.050447  15995.479963   5589.826293     79.437583
PR08  16508.653209   4268.956480  19025.205559    -74.963100
PR09    958.319473  11462.166425  22779.064428    179.063073
PR10  15849.033098   5324.057678  19222.787851   -144.901245
PR11  24772.855487  -4457.312158   4199.688410     29.083775
PR12  17410.674061 -11645.786123 -14526.408235     38.582852
PR13   2070.905509 -11773.183238 -22549.812009    -45.942875
PR14 -17680.034143  -4298.847802 -17859.423449     26.322557
PR15 -24862.764107   5049.467535  -2600.917109     80.796225
PR16 -17554.081625  11604.493429  14397.062918     24.521108
PR17  -7307.195525 -10723.807343  21958.541244     74.888109
PR18 -12141.857882   6589.454315  21440.950240    135.421228
PR19 -11977.642361  19401.717208  11429.085614   -271.800213
PR20  -3507.903183  23372.360472  -9530.303184   -110.728267
PR21   7143.935648  10767.468868 -21999.585857    -89.908604
PR22  12831.170806  -7383.134674 -20754.054989    115.337777
PR23  10685.816630 -21657.779984  -8238.220708   -116.853083
PR24   2006.090544 -23390.419111   9979.993853    -50.429858
PR25   7220.484501  10951.799802 -21876.473664    -26.909545
PR26  17038.942050   5176.621776  18300.422921    -26.788991
EOF
